[
  {
    "COMMENT": "GENERATED VIA SPACETRACK.ORG API",
    "ORIGINATOR": "18 SPCS",
    "NORAD_CAT_ID": "54754",
    "OBJECT_NAME": "SWOT",
    "OBJECT_TYPE": "PAYLOAD",
    "CLASSIFICATION_TYPE": "U",
    "INTLDES": "22173A",
    "EPOCH": "2023-05-07 12:48:32",
    "EPOCH_MICROSECONDS": "695200",
    "MEAN_MOTION": "14.09852938",
    "ECCENTRICITY": "0.0001114",
    "INCLINATION": "77.6043",
    "RA_OF_ASC_NODE": "131.1218",
    "ARG_OF_PERICENTER": "206.0904",
    "MEAN_ANOMALY": "154.0197",
    "EPHEMERIS_TYPE": "0",
    "ELEMENT_SET_NO": "999",
    "REV_AT_EPOCH": "2001",
    "BSTAR": "0.0001384",
    "MEAN_MOTION_DOT": "0.00000241",
    "MEAN_MOTION_DDOT": "0",
    "FILE": "3903215",
    "TLE_LINE0": "0 SWOT",
    "TLE_LINE1": "1 54754U 22173A   23127.53371175  .00000241  00000-0  13840-3 0  9993",
    "TLE_LINE2": "2 54754  77.6043 131.1218 0001114 206.0904 154.0197 14.09852938 20018",
    "OBJECT_ID": "2022-173A",
    "OBJECT_NUMBER": "54754",
    "SEMIMAJOR_AXIS": "7238.012",
    "PERIOD": "102.138",
    "APOGEE": "860.683",
    "PERIGEE": "859.071",
    "DECAYED": "0"
  },
  {
    "COMMENT": "GENERATED VIA SPACETRACK.ORG API",
    "ORIGINATOR": "18 SPCS",
    "NORAD_CAT_ID": "54754",
    "OBJECT_NAME": "SWOT",
    "OBJECT_TYPE": "PAYLOAD",
    "CLASSIFICATION_TYPE": "U",
    "INTLDES": "22173A",
    "EPOCH": "2023-05-07 19:37:17",
    "EPOCH_MICROSECONDS": "792256",
    "MEAN_MOTION": "14.0985309",
    "ECCENTRICITY": "0.0001114",
    "INCLINATION": "77.6043",
    "RA_OF_ASC_NODE": "130.7323",
    "ARG_OF_PERICENTER": "205.719",
    "MEAN_ANOMALY": "154.3912",
    "EPHEMERIS_TYPE": "0",
    "ELEMENT_SET_NO": "999",
    "REV_AT_EPOCH": "2005",
    "BSTAR": "0.00013836",
    "MEAN_MOTION_DOT": "0.00000241",
    "MEAN_MOTION_DDOT": "0",
    "FILE": "3903413",
    "TLE_LINE0": "0 SWOT",
    "TLE_LINE1": "1 54754U 22173A   23127.81756704  .00000241  00000-0  13836-3 0  9994",
    "TLE_LINE2": "2 54754  77.6043 130.7323 0001114 205.7190 154.3912 14.09853090 20055",
    "OBJECT_ID": "2022-173A",
    "OBJECT_NUMBER": "54754",
    "SEMIMAJOR_AXIS": "7238.011",
    "PERIOD": "102.138",
    "APOGEE": "860.683",
    "PERIGEE": "859.070",
    "DECAYED": "0"
  },
  {
    "COMMENT": "GENERATED VIA SPACETRACK.ORG API",
    "ORIGINATOR": "18 SPCS",
    "NORAD_CAT_ID": "54754",
    "OBJECT_NAME": "SWOT",
    "OBJECT_TYPE": "PAYLOAD",
    "CLASSIFICATION_TYPE": "U",
    "INTLDES": "22173A",
    "EPOCH": "2023-05-08 05:50:25",
    "EPOCH_MICROSECONDS": "434816",
    "MEAN_MOTION": "14.09853264",
    "ECCENTRICITY": "0.0001116",
    "INCLINATION": "77.6043",
    "RA_OF_ASC_NODE": "130.1481",
    "ARG_OF_PERICENTER": "205.4586",
    "MEAN_ANOMALY": "154.6516",
    "EPHEMERIS_TYPE": "0",
    "ELEMENT_SET_NO": "999",
    "REV_AT_EPOCH": "2011",
    "BSTAR": "0.00013588",
    "MEAN_MOTION_DOT": "0.00000236",
    "MEAN_MOTION_DDOT": "0",
    "FILE": "3903726",
    "TLE_LINE0": "0 SWOT",
    "TLE_LINE1": "1 54754U 22173A   23128.24334994  .00000236  00000-0  13588-3 0  9993",
    "TLE_LINE2": "2 54754  77.6043 130.1481 0001116 205.4586 154.6516 14.09853264 20115",
    "OBJECT_ID": "2022-173A",
    "OBJECT_NUMBER": "54754",
    "SEMIMAJOR_AXIS": "7238.011",
    "PERIOD": "102.138",
    "APOGEE": "860.684",
    "PERIGEE": "859.068",
    "DECAYED": "0"
  },
  {
    "COMMENT": "GENERATED VIA SPACETRACK.ORG API",
    "ORIGINATOR": "18 SPCS",
    "NORAD_CAT_ID": "54754",
    "OBJECT_NAME": "SWOT",
    "OBJECT_TYPE": "PAYLOAD",
    "CLASSIFICATION_TYPE": "U",
    "INTLDES": "22173A",
    "EPOCH": "2023-05-08 21:10:06",
    "EPOCH_MICROSECONDS": "887424",
    "MEAN_MOTION": "14.09853578",
    "ECCENTRICITY": "0.0001117",
    "INCLINATION": "77.6043",
    "RA_OF_ASC_NODE": "129.2716",
    "ARG_OF_PERICENTER": "204.8261",
    "MEAN_ANOMALY": "155.2842",
    "EPHEMERIS_TYPE": "0",
    "ELEMENT_SET_NO": "999",
    "REV_AT_EPOCH": "2020",
    "BSTAR": "0.00013493",
    "MEAN_MOTION_DOT": "0.00000235",
    "MEAN_MOTION_DDOT": "0",
    "FILE": "3904305",
    "TLE_LINE0": "0 SWOT",
    "TLE_LINE1": "1 54754U 22173A   23128.88202416  .00000235  00000-0  13493-3 0  9990",
    "TLE_LINE2": "2 54754  77.6043 129.2716 0001117 204.8261 155.2842 14.09853578 20206",
    "OBJECT_ID": "2022-173A",
    "OBJECT_NUMBER": "54754",
    "SEMIMAJOR_AXIS": "7238.010",
    "PERIOD": "102.138",
    "APOGEE": "860.683",
    "PERIGEE": "859.066",
    "DECAYED": "0"
  },
  {
    "COMMENT": "GENERATED VIA SPACETRACK.ORG API",
    "ORIGINATOR": "18 SPCS",
    "NORAD_CAT_ID": "54754",
    "OBJECT_NAME": "SWOT",
    "OBJECT_TYPE": "PAYLOAD",
    "CLASSIFICATION_TYPE": "U",
    "INTLDES": "22173A",
    "EPOCH": "2023-05-09 14:11:59",
    "EPOCH_MICROSECONDS": "601120",
    "MEAN_MOTION": "14.09853941",
    "ECCENTRICITY": "0.0001117",
    "INCLINATION": "77.6044",
    "RA_OF_ASC_NODE": "128.2978",
    "ARG_OF_PERICENTER": "203.5144",
    "MEAN_ANOMALY": "156.5962",
    "EPHEMERIS_TYPE": "0",
    "ELEMENT_SET_NO": "999",
    "REV_AT_EPOCH": "2030",
    "BSTAR": "0.00013754",
    "MEAN_MOTION_DOT": "0.00000239",
    "MEAN_MOTION_DDOT": "0",
    "FILE": "3904553",
    "TLE_LINE0": "0 SWOT",
    "TLE_LINE1": "1 54754U 22173A   23129.59166205  .00000239  00000-0  13754-3 0  9998",
    "TLE_LINE2": "2 54754  77.6044 128.2978 0001117 203.5144 156.5962 14.09853941 20304",
    "OBJECT_ID": "2022-173A",
    "OBJECT_NUMBER": "54754",
    "SEMIMAJOR_AXIS": "7238.009",
    "PERIOD": "102.138",
    "APOGEE": "860.682",
    "PERIGEE": "859.065",
    "DECAYED": "0"
  },
  {
    "COMMENT": "GENERATED VIA SPACETRACK.ORG API",
    "ORIGINATOR": "18 SPCS",
    "NORAD_CAT_ID": "54754",
    "OBJECT_NAME": "SWOT",
    "OBJECT_TYPE": "PAYLOAD",
    "CLASSIFICATION_TYPE": "U",
    "INTLDES": "22173A",
    "EPOCH": "2023-05-10 14:02:37",
    "EPOCH_MICROSECONDS": "369536",
    "MEAN_MOTION": "14.09854511",
    "ECCENTRICITY": "0.0001111",
    "INCLINATION": "77.6044",
    "RA_OF_ASC_NODE": "126.9344",
    "ARG_OF_PERICENTER": "203.5457",
    "MEAN_ANOMALY": "156.565",
    "EPHEMERIS_TYPE": "0",
    "ELEMENT_SET_NO": "999",
    "REV_AT_EPOCH": "2044",
    "BSTAR": "0.00014752",
    "MEAN_MOTION_DOT": "0.00000257",
    "MEAN_MOTION_DDOT": "0",
    "FILE": "3904555",
    "TLE_LINE0": "0 SWOT",
    "TLE_LINE1": "1 54754U 22173A   23130.58515474  .00000257  00000-0  14752-3 0  9994",
    "TLE_LINE2": "2 54754  77.6044 126.9344 0001111 203.5457 156.5650 14.09854511 20440",
    "OBJECT_ID": "2022-173A",
    "OBJECT_NUMBER": "54754",
    "SEMIMAJOR_AXIS": "7238.007",
    "PERIOD": "102.138",
    "APOGEE": "860.676",
    "PERIGEE": "859.067",
    "DECAYED": "0"
  },
  {
    "COMMENT": "GENERATED VIA SPACETRACK.ORG API",
    "ORIGINATOR": "18 SPCS",
    "NORAD_CAT_ID": "54754",
    "OBJECT_NAME": "SWOT",
    "OBJECT_TYPE": "PAYLOAD",
    "CLASSIFICATION_TYPE": "U",
    "INTLDES": "22173A",
    "EPOCH": "2023-05-10 19:09:11",
    "EPOCH_MICROSECONDS": "171808",
    "MEAN_MOTION": "14.09854654",
    "ECCENTRICITY": "0.0001113",
    "INCLINATION": "77.6044",
    "RA_OF_ASC_NODE": "126.6423",
    "ARG_OF_PERICENTER": "203.3612",
    "MEAN_ANOMALY": "156.7494",
    "EPHEMERIS_TYPE": "0",
    "ELEMENT_SET_NO": "999",
    "REV_AT_EPOCH": "2047",
    "BSTAR": "0.00015196",
    "MEAN_MOTION_DOT": "0.00000265",
    "MEAN_MOTION_DDOT": "0",
    "FILE": "3904788",
    "TLE_LINE0": "0 SWOT",
    "TLE_LINE1": "1 54754U 22173A   23130.79804597  .00000265  00000-0  15196-3 0  9996",
    "TLE_LINE2": "2 54754  77.6044 126.6423 0001113 203.3612 156.7494 14.09854654 20477",
    "OBJECT_ID": "2022-173A",
    "OBJECT_NUMBER": "54754",
    "SEMIMAJOR_AXIS": "7238.006",
    "PERIOD": "102.138",
    "APOGEE": "860.677",
    "PERIGEE": "859.066",
    "DECAYED": "0"
  },
  {
    "COMMENT": "GENERATED VIA SPACETRACK.ORG API",
    "ORIGINATOR": "18 SPCS",
    "NORAD_CAT_ID": "54754",
    "OBJECT_NAME": "SWOT",
    "OBJECT_TYPE": "PAYLOAD",
    "CLASSIFICATION_TYPE": "U",
    "INTLDES": "22173A",
    "EPOCH": "2023-05-10 20:51:22",
    "EPOCH_MICROSECONDS": "438944",
    "MEAN_MOTION": "14.09854711",
    "ECCENTRICITY": "0.0001114",
    "INCLINATION": "77.6044",
    "RA_OF_ASC_NODE": "126.5449",
    "ARG_OF_PERICENTER": "203.3256",
    "MEAN_ANOMALY": "156.785",
    "EPHEMERIS_TYPE": "0",
    "ELEMENT_SET_NO": "999",
    "REV_AT_EPOCH": "2048",
    "BSTAR": "0.0001547",
    "MEAN_MOTION_DOT": "0.00000269",
    "MEAN_MOTION_DDOT": "0",
    "FILE": "3904830",
    "TLE_LINE0": "0 SWOT",
    "TLE_LINE1": "1 54754U 22173A   23130.86900971  .00000269  00000-0  15470-3 0  9996",
    "TLE_LINE2": "2 54754  77.6044 126.5449 0001114 203.3256 156.7850 14.09854711 20480",
    "OBJECT_ID": "2022-173A",
    "OBJECT_NUMBER": "54754",
    "SEMIMAJOR_AXIS": "7238.006",
    "PERIOD": "102.138",
    "APOGEE": "860.677",
    "PERIGEE": "859.065",
    "DECAYED": "0"
  },
  {
    "COMMENT": "GENERATED VIA SPACETRACK.ORG API",
    "ORIGINATOR": "18 SPCS",
    "NORAD_CAT_ID": "54754",
    "OBJECT_NAME": "SWOT",
    "OBJECT_TYPE": "PAYLOAD",
    "CLASSIFICATION_TYPE": "U",
    "INTLDES": "22173A",
    "EPOCH": "2023-05-11 13:53:15",
    "EPOCH_MICROSECONDS": "110304",
    "MEAN_MOTION": "14.09855024",
    "ECCENTRICITY": "0.0001106",
    "INCLINATION": "77.6045",
    "RA_OF_ASC_NODE": "125.5711",
    "ARG_OF_PERICENTER": "203.0572",
    "MEAN_ANOMALY": "157.0535",
    "EPHEMERIS_TYPE": "0",
    "ELEMENT_SET_NO": "999",
    "REV_AT_EPOCH": "2058",
    "BSTAR": "0.00015004",
    "MEAN_MOTION_DOT": "0.00000261",
    "MEAN_MOTION_DDOT": "0",
    "FILE": "3905210",
    "TLE_LINE0": "0 SWOT",
    "TLE_LINE1": "1 54754U 22173A   23131.57864711  .00000261  00000-0  15004-3 0  9991",
    "TLE_LINE2": "2 54754  77.6045 125.5711 0001106 203.0572 157.0535 14.09855024 20584",
    "OBJECT_ID": "2022-173A",
    "OBJECT_NUMBER": "54754",
    "SEMIMAJOR_AXIS": "7238.005",
    "PERIOD": "102.138",
    "APOGEE": "860.670",
    "PERIGEE": "859.069",
    "DECAYED": "0"
  }
]